NORAD_CAT_ID,OBJECT_NAME,OBJECT_TYPE,EPOCH,MEAN_MOTION,ECCENTRICITY,INCLINATION,RA_OF_ASC_NODE,ARG_OF_PERICENTER,MEAN_ANOMALY,BSTAR,MEAN_MOTION_DOT,MEAN_MOTION_DDOT,TLE_LINE0,TLE_LINE1,TLE_LINE2,SEMIMAJOR_AXIS,PERIOD,APOGEE,PERIGEE,DECAYED
53277.0,STARLINK-4178,PAYLOAD,2023-01-27 20:52:44,15.08831295,0.0001187,53.2136,247.508,84.5692,275.5435,1.1978e-05,-9.7e-07,0.0,0 STARLINK-4178,1 53277U 22086AM  23027.86996047 -.00000097  00000-0  11978-4 0  9992,2 53277  53.2136 247.5080 0001187  84.5692 275.5435 15.08831295 29579,6917.906999999999,95.438,540.5930000000001,538.951,0.0
53277.0,STARLINK-4178,PAYLOAD,2023-01-28 09:35:49,15.08840816,0.0001143,53.2137,245.1289,84.8964,275.2158,-2.6405e-05,-7.08e-06,0.0,0 STARLINK-4178,1 53277U 22086AM  23028.39987579 -.00000708  00000-0 -26405-4 0  9992,2 53277  53.2137 245.1289 0001143  84.8964 275.2158 15.08840816 29480,6917.878,95.438,540.534,538.952,0.0
53277.0,STARLINK-4178,PAYLOAD,2023-01-28 14:21:58,15.08840535,0.0001149,53.2138,244.2367,82.3459,277.7663,2.8144e-05,1.6e-06,0.0,0 STARLINK-4178,1 53277U 22086AM  23028.59859448  .00000160  00000-0  28144-4 0  9999,2 53277  53.2138 244.2367 0001149  82.3459 277.7663 15.08840535 29684,6917.879,95.438,540.539,538.949,0.0
53277.0,STARLINK-4178,PAYLOAD,2023-01-28 20:43:30,15.08846638,0.0001207,53.2137,243.047,82.1186,277.9943,1.6e-05,-3.3e-07,0.0,0 STARLINK-4178,1 53277U 22086AM  23028.86355094 -.00000033  00000-0  16000-4 0  9995,2 53277  53.2137 243.0470 0001207  82.1186 277.9943 15.08846638 29723,6917.86,95.437,540.56,538.89,0.0
53277.0,STARLINK-4178,PAYLOAD,2023-01-28 23:54:16,15.08845378,0.0001165,53.2138,242.4522,83.6381,276.4743,6.431e-05,7.36e-06,0.0,0 STARLINK-4178,1 53277U 22086AM  23028.99602917  .00000736  00000-0  64310-4 0  9994,2 53277  53.2138 242.4522 0001165  83.6381 276.4743 15.08845378 29576,6917.864,95.437,540.535,538.923,0.0
53277.0,STARLINK-4178,PAYLOAD,2023-01-29 17:23:32,15.08834024,0.0001211,53.2137,239.1812,79.5035,280.6093,2.3637e-06,-2.5e-06,0.0,0 STARLINK-4178,1 53277U 22086AM  23029.72467885 -.00000250  00000-0  23637-5 0  9999,2 53277  53.2137 239.1812 0001211  79.5035 280.6093 15.08834024 29685,6917.899,95.438,540.601,538.926,0.0
53277.0,STARLINK-4178,PAYLOAD,2023-01-29 20:34:18,15.08835351,0.0001217,53.2136,238.5864,79.4174,280.6955,1.2652e-05,-8.7e-07,0.0,0 STARLINK-4178,1 53277U 22086AM  23029.85715790 -.00000087  00000-0  12652-4 0  9996,2 53277  53.2136 238.5864 0001217  79.4174 280.6955 15.08835351 29875,6917.895,95.438,540.602,538.918,0.0
53277.0,STARLINK-4178,PAYLOAD,2023-01-30 14:03:48,15.08680521,0.0002102,53.2145,235.3154,132.3135,227.8035,-0.0010368,-0.00016679,0.0,0 STARLINK-4178,1 53277U 22086AM  23030.58598007 -.00016679  00000-0 -10368-2 0  9993,2 53277  53.2145 235.3154 0002102 132.3135 227.8035 15.08680521 29815,6918.368,95.448,541.687,538.779,0.0
53277.0,STARLINK-4178,PAYLOAD,2023-01-30 22:01:17,15.0832221,0.0001465,53.2136,233.8317,84.0227,276.0932,-0.0039993,-0.00062496,0.0,0 STARLINK-4178,1 53277U 22086AM  23030.91756318 -.00062496  00000-0 -39993-2 0  9994,2 53277  53.2136 233.8317 0001465  84.0227 276.0932 15.08322210 29860,6919.464,95.47,542.342,540.315,0.0
53277.0,STARLINK-4178,PAYLOAD,2023-01-31 05:58:34,15.08165712,0.0001473,53.2134,232.3449,83.5986,276.5173,-0.0049377,-0.00076614,0.0,0 STARLINK-4178,1 53277U 22086AM  23031.24900714 -.00076614  00000-0 -49377-2 0  9996,2 53277  53.2134 232.3449 0001473  83.5986 276.5173 15.08165712 29913,6919.942,95.48,542.826,540.788,0.0
53277.0,STARLINK-4178,PAYLOAD,2023-01-31 15:31:24,15.07947865,0.0001006,53.2135,230.5633,154.1461,205.9581,-0.0060722,-0.00093374,0.0,0 STARLINK-4178,1 53277U 22086AM  23031.64681274 -.00093374  00000-0 -60722-2 0  9996,2 53277  53.2135 230.5633 0001006 154.1461 205.9581 15.07947865 29975,6920.609,95.494,543.17,541.777,0.0
53277.0,STARLINK-4178,PAYLOAD,2023-01-31 20:17:52,15.07832046,0.0001236,53.2135,229.6719,84.8723,275.241,-0.0066868,-0.00102345,0.0,0 STARLINK-4178,1 53277U 22086AM  23031.84574359 -.00102345  00000-0 -66868-2 0  9999,2 53277  53.2135 229.6719 0001236  84.8723 275.2410 15.07832046 30173,6920.963,95.501,543.683,541.973,0.0
53277.0,STARLINK-4178,PAYLOAD,2023-02-01 06:00:00,15.07130067,0.0001233,53.2127,227.8573,89.2392,307.0042,0.017587,0.00277618,0.0,0 STARLINK-4178,1 53277U 22086AM  23032.25001157  .00277618  00000-0  17587-1 0  9993,2 53277  53.2127 227.8573 0001233  89.2392 307.0042 15.07130067 30067,6923.112,95.546,545.831,544.123,0.0
53277.0,STARLINK-4178,PAYLOAD,2023-02-01 14:00:01,15.07326576,0.0001135,53.2127,226.3645,94.7507,311.1281,0.029194,0.00471689,0.0,0 STARLINK-4178,1 53277U 22086AM  23032.58334491  .00471689  00000-0  29194-1 0  9990,2 53277  53.2127 226.3645 0001135  94.7507 311.1281 15.07326576 30110,6922.51,95.533,545.161,543.589,0.0
53277.0,STARLINK-4178,PAYLOAD,2023-02-02 06:00:00,15.07946686,0.0001357,53.2121,223.3772,89.8365,336.333,0.031114,0.00513875,0.0,0 STARLINK-4178,1 53277U 22086AM  23033.25001157  .00513875  00000-0  31114-1 0  9994,2 53277  53.2121 223.3772 0001357  89.8365 336.3330 15.07946686 30210,6920.612,95.494,543.416,541.538,0.0
53277.0,STARLINK-4178,PAYLOAD,2023-02-02 14:00:01,15.08301921,0.0001408,53.212,221.8824,92.7256,344.1525,0.0284,0.00471108,0.0,0 STARLINK-4178,1 53277U 22086AM  23033.58334491  .00471108  00000-0  28400-1 0  9996,2 53277  53.2120 221.8824 0001408  92.7256 344.1525 15.08301921  1308,6919.526,95.472,542.365,540.416,0.0
53277.0,STARLINK-4178,PAYLOAD,2023-02-02 15:14:41,15.07903656,0.0002156,53.212,221.647,91.6629,268.461,0.0028884,0.0004481,0.0,0 STARLINK-4178,1 53277U 22086AM  23033.63520078  .00044810  00000-0  28884-2 0  9993,2 53277  53.2120 221.6470 0002156  91.6629 268.4610 15.07903656 30279,6920.744,95.497,544.101,541.117,0.0
53277.0,STARLINK-4178,PAYLOAD,2023-02-03 05:33:20,15.08073258,4.18e-05,53.2138,218.9711,156.5485,203.5526,0.0058923,0.0009276,0.0,0 STARLINK-4178,1 53277U 22086AM  23034.23149293  .00092760  00000-0  58923-2 0  9990,2 53277  53.2138 218.9711 0000418 156.5485 203.5526 15.08073258 30368,6920.225,95.486,542.379,541.801,0.0
53277.0,STARLINK-4178,PAYLOAD,2023-02-03 11:54:55,15.08232945,0.0001491,53.2141,217.7815,81.0045,279.1115,0.006414,0.00101565,0.0,0 STARLINK-4178,1 53277U 22086AM  23034.49647101  .00101565  00000-0  64140-2 0  9991,2 53277  53.2141 217.7815 0001491  81.0045 279.1115 15.08232945 30408,6919.737,95.476,542.633,540.57,0.0
53277.0,STARLINK-4178,PAYLOAD,2023-02-04 06:59:47,15.08528053,0.0001201,53.2159,214.2144,48.7143,311.3952,0.0035062,0.00055476,0.0,0 STARLINK-4178,1 53277U 22086AM  23035.29152064  .00055476  00000-0  35062-2 0  9999,2 53277  53.2159 214.2144 0001201  48.7143 311.3952 15.08528053 30521,6918.834,95.457,541.53,539.868,0.0
53277.0,STARLINK-4178,PAYLOAD,2023-02-04 13:21:22,15.08658741,0.0001499,53.2154,213.0256,76.4519,283.664,0.0021401,0.00033767,0.0,0 STARLINK-4178,1 53277U 22086AM  23035.55650938  .00033767  00000-0  21401-2 0  9992,2 53277  53.2154 213.0256 0001499  76.4519 283.6640 15.08658741 30568,6918.434,95.449,541.337,539.262,0.0
53277.0,STARLINK-4178,PAYLOAD,2023-02-04 22:00:00,15.08807959,0.0001415,53.2137,211.4094,80.6488,76.8363,0.0018207,0.00028782,0.0,0 STARLINK-4178,1 53277U 22086AM  23035.91667824  .00028782  00000-0  18207-2 0  9995,2 53277  53.2137 211.4094 0001415  80.6488  76.8363 15.08807959 30618,6917.978,95.44,540.822,538.864,0.0
53277.0,STARLINK-4178,PAYLOAD,2023-02-05 14:00:01,15.08848262,0.0001401,53.2143,208.4151,90.0953,90.5953,-0.0011481,-0.00018517,0.0,0 STARLINK-4178,1 53277U 22086AM  23036.58335648 -.00018517  00000-0 -11481-2 0  9999,2 53277  53.2143 208.4151 0001401  90.0953  90.5953 15.08848262  1306,6917.855,95.437,540.689,538.751,0.0
53277.0,STARLINK-4178,PAYLOAD,2023-02-05 22:00:00,15.0881262,0.0001373,53.2143,206.92,80.5835,111.6489,0.0025978,0.00041267,0.0,0 STARLINK-4178,1 53277U 22086AM  23036.91667824  .00041267  00000-0  25978-2 0  9992,2 53277  53.2143 206.9200 0001373  80.5835 111.6489 15.08812620 30765,6917.964,95.439,540.779,538.879,0.0
53277.0,STARLINK-4178,PAYLOAD,2023-02-06 14:00:01,15.088738,0.0001375,53.2149,203.926,92.6938,122.7068,-0.0029559,-0.00047067,0.0,0 STARLINK-4178,1 53277U 22086AM  23037.58334491 -.00047067  00000-0 -29559-2 0  9992,2 53277  53.2149 203.9260 0001375  92.6938 122.7068 15.08873800 30868,6917.777,95.435,540.593,538.691,0.0
53277.0,STARLINK-4178,PAYLOAD,2023-02-06 22:00:00,15.08807569,0.0001317,53.2147,202.4307,86.0518,140.9742,0.00236,0.00037438,0.0,0 STARLINK-4178,1 53277U 22086AM  23037.91667824  .00037438  00000-0  23600-2 0  9998,2 53277  53.2147 202.4307 0001317  86.0518 140.9742 15.08807569  1306,6917.98,95.44,540.756,538.933,0.0
53277.0,STARLINK-4178,PAYLOAD,2023-02-07 00:00:00,15.08823596,0.0001285,53.2145,202.0561,88.56,231.355,0.00049058,7.525e-05,0.0,0 STARLINK-4178,1 53277U 22086AM  23038.00001157  .00007525  00000-0  49058-3 0  9990,2 53277  53.2145 202.0561 0001285  88.5600 231.3550 15.08823596 30936,6917.931,95.439,540.684,538.907,0.0
53277.0,STARLINK-4178,PAYLOAD,2023-02-07 14:29:08,15.08834508,0.0001227,53.216,199.3457,85.6719,274.4413,4.8273e-05,4.8e-06,0.0,0 STARLINK-4178,1 53277U 22086AM  23038.60356888  .00000480  00000-0  48273-4 0  9992,2 53277  53.2160 199.3457 0001227  85.6719 274.4413 15.08834508 31190,6917.897,95.438,540.611,538.913,0.0
53277.0,STARLINK-4178,PAYLOAD,2023-02-07 17:39:54,15.0883996,0.0001234,53.2158,198.7512,84.234,275.8793,8.7148e-05,1.099e-05,0.0,0 STARLINK-4178,1 53277U 22086AM  23038.73604436  .00001099  00000-0  87148-4 0  9992,2 53277  53.2158 198.7512 0001234  84.2340 275.8793 15.08839960 31042,6917.881,95.438,540.599,538.892,0.0
53277.0,STARLINK-4178,PAYLOAD,2023-02-08 14:19:56,15.08828004,0.0001168,53.2155,194.8861,81.3976,278.7148,-7.4862e-05,-1.479e-05,0.0,0 STARLINK-4178,1 53277U 22086AM  23039.59717956 -.00001479  00000-0 -74862-4 0  9992,2 53277  53.2155 194.8861 0001168  81.3976 278.7148 15.08828004 31179,6917.917,95.438,540.59,538.974,0.0
